[{"OBJECT_NAME":"STARLINK-35825","OBJECT_ID":"2025-268L","EPOCH":"2026-03-09T02:30:48.731616","MEAN_MOTION":15.27596711,"ECCENTRICITY":0.0001091,"INCLINATION":43.0016,"RA_OF_ASC_NODE":350.0796,"ARG_OF_PERICENTER":266.9898,"MEAN_ANOMALY":93.0829,"EPHEMERIS_TYPE":0,"CLASSIFICATION_TYPE":"U","NORAD_CAT_ID":66567,"ELEMENT_SET_NO":999,"REV_AT_EPOCH":1787,"BSTAR":0.0011338233,"MEAN_MOTION_DOT":0.00031086,"MEAN_MOTION_DDOT":0},{"OBJECT_NAME":"CZ-2C R\/B","OBJECT_ID":"2014-014B","EPOCH":"2026-03-09T23:01:00.862464","MEAN_MOTION":15.34922702,"ECCENTRICITY":0.00700559,"INCLINATION":98.3314,"RA_OF_ASC_NODE":172.135,"ARG_OF_PERICENTER":276.2597,"MEAN_ANOMALY":83.0667,"EPHEMERIS_TYPE":0,"CLASSIFICATION_TYPE":"U","NORAD_CAT_ID":39625,"ELEMENT_SET_NO":999,"REV_AT_EPOCH":65564,"BSTAR":0.0004934259,"MEAN_MOTION_DOT":0.00018031,"MEAN_MOTION_DDOT":0}]
